SIRION PATHFINDER-2     
1 43759U 18099B   26156.09085588  .00005474  00000+0  30112-3 0  9997
2 43759  97.4254 205.4362 0008178 352.2997   7.8108 15.14436976410795
CORVUS BC4              
1 43767U 18099K   26157.66893672  .00005662  00000+0  32935-3 0  9995
2 43767  97.4067 200.9576 0009263  46.3509 313.8488 15.12410191410812
M2 PATHFINDER           
1 45727U 20037E   26157.47304527  .00003381  00000+0  24487-3 0  9992
2 45727  97.8157 348.5839 0011491 183.0917 177.0240 15.04629336323883
NETSAT-4                
1 46504U 20068U   26157.75337211  .00022196  00000+0  49614-3 0  9991
2 46504  97.8609 165.1587 0005201  19.7037 340.4410 15.43515061314160
NETSAT-3                
1 46505U 20068V   26157.55694504  .00023360  00000+0  54337-3 0  9993
2 46505  97.8660 163.1764 0005633  37.8178 322.3462 15.42309856314044
NETSAT-1                
1 46506U 20068W   26157.57162386  .00016988  00000+0  51189-3 0  9994
2 46506  97.8751 157.6478 0006191  61.7667 298.4199 15.34388994313674
NETSAT-2                
1 46507U 20068X   26157.54851792  .00028336  00000+0  59055-3 0  9998
2 46507  97.8623 164.7938 0004854  55.5994 304.5712 15.45537706314097
GREENCUBE (IO-117)      
1 53109U 22080E   26152.46502029 -.00000003  00000+0  00000+0 0  9996
2 53109  70.1435 303.7143 0008869 293.3663  66.6064  6.42583280 91055
SITRO-AIS 5 (KATYS)     
1 57176U 23091L   26157.92836803  .00014811  00000+0  52345-3 0  9997
2 57176  97.5060 221.7320 0012612 135.2715 224.9544 15.29218397162778
SITRO-AIS 6 (CHIRKIN)   
1 57192U 23091AC  26157.94937002  .00011352  00000+0  44658-3 0  9995
2 57192  97.5067 220.9262 0012895 138.1186 222.1041 15.25738459162725
SITRO-AIS 8 (ANOKHIN)   
1 57193U 23091AD  26157.96318043  .00015699  00000+0  51140-3 0  9998
2 57193  97.5056 223.3145 0011811 131.2338 228.9923 15.31857374162886
SITRO-AIS 7 (FARTUSHNIY)
1 57194U 23091AE  26157.95043854  .00010839  00000+0  43054-3 0  9999
2 57194  97.5065 220.7576 0012722 138.9363 221.2835 15.25431261162716
SITRO-AIS 10 (BURDAEV)  
1 57199U 23091AK  26157.90728595  .00022896  00000+0  60872-3 0  9994
2 57199  97.5080 228.2071 0007961 110.2363 249.9739 15.38219285163189
SITRO-AIS 9 (SHCHUKIN)  
1 57201U 23091AM  26157.93046225  .00021689  00000+0  58575-3 0  9990
2 57201  97.5077 227.9688 0008193 110.6459 249.5665 15.37743206163174
SITRO-AIS 12 (SMIRENNIY)
1 57204U 23091AQ  26157.92301826  .00021960  00000+0  58754-3 0  9994
2 57204  97.5091 228.4219 0007849 105.4252 254.7860 15.38033081163190
SITRO-AIS 11 (SHEFFER)  
1 57208U 23091AU  26157.87420074  .00022615  00000+0  59695-3 0  9992
2 57208  97.5088 228.6119 0007729 105.6754 254.5344 15.38446110163205
SITRO-AIS 25            
1 59066U 24039R   26157.92420907  .00003921  00000+0  30605-3 0  9999
2 59066  95.3907 228.0403 0144816   4.8038 355.4537 14.93456617123191
SITRO-AIS 26            
1 59067U 24039S   26157.92418545  .00003932  00000+0  30825-3 0  9991
2 59067  95.3907 227.9400 0145172   5.3755 354.8987 14.93253606123189
SITRO-AIS 27            
1 59068U 24039T   26157.96429162  .00003328  00000+0  25904-3 0  9994
2 59068  95.3912 228.2346 0144240   3.9144 356.3173 14.93673588123213
SITRO-AIS 28            
1 59071U 24039U   26157.94196889  .00004140  00000+0  32144-3 0  9990
2 59071  95.3913 228.2659 0144068   3.8586 356.3714 14.93707404123218
GRBBETA                 
1 60237U 24128C   26157.60088395  .00005323  00000+0  36512-3 0  9997
2 60237  61.9899 253.4064 0042034 132.5127 227.9529 15.06565866104672
OOV-CUBE (TUBSAT-30)    
1 60240U 24128F   26157.87486527  .00002819  00000+0  22099-3 0  9991
2 60240  61.9952 261.5303 0045919 131.4461 229.0588 15.02728483104564
ROBUSTA-3A (MEDITERRAN*)
1 60243U 24128J   26157.61704686  .00009590  00000+0  56280-3 0  9997
2 60243  61.9860 245.6203 0042816 125.8059 234.7027 15.11543644104824
LASARSAT                
1 62391U 24247Q   26154.92379714  .00036882  00000+0  75515-3 0  9992
2 62391  44.9754 336.7002 0008047 258.6055 101.3931 15.45494859 81266
CROCUBE                 
1 62394U 24247T   26157.84237017  .00044564  00000+0  84876-3 0  9994
2 62394  44.9730 317.8161 0008144 277.6429  82.3536 15.47515230 81744
FORESAIL-1 PRIME        
1 66778U 25276DS  26157.65186258  .00005428  00000+0  26556-3 0  9993
2 66778  97.4198 231.1163 0003661 125.3136 234.8442 15.18605818 28806
KNACKSAT-2              
1 67683U 98067XZ  26157.26456592  .00064955  00000+0  81733-3 0  9993
2 67683  51.6302 349.3788 0010533 167.5745 192.5509 15.58973490 18571
