OBJECT_NAME,OBJECT_ID,EPOCH,MEAN_MOTION,ECCENTRICITY,INCLINATION,RA_OF_ASC_NODE,ARG_OF_PERICENTER,MEAN_ANOMALY,EPHEMERIS_TYPE,CLASSIFICATION_TYPE,NORAD_CAT_ID,ELEMENT_SET_NO,REV_AT_EPOCH,BSTAR,MEAN_MOTION_DOT,MEAN_MOTION_DDOT
SIRION PATHFINDER-2,2018-099B,2026-06-05T02:10:49.948032,15.14436976,.0008178,97.4254,205.4362,352.2997,7.8108,0,U,43759,999,41079,.30112E-3,.5474E-4,0
CORVUS BC4,2018-099K,2026-06-06T16:03:16.132608,15.12410191,.00092638,97.4067,200.9576,46.3509,313.8488,0,U,43767,999,41081,.32934866E-3,.5662E-4,0
M2 PATHFINDER,2020-037E,2026-06-06T11:21:11.111328,15.04629336,.00114912,97.8157,348.5839,183.0917,177.0240,0,U,45727,999,32388,.24486953E-3,.3381E-4,0
NETSAT-4,2020-068U,2026-06-06T18:04:51.350304,15.43515061,.00052019,97.8609,165.1587,19.7037,340.4410,0,U,46504,999,31416,.49614109E-3,.22196E-3,0
NETSAT-3,2020-068V,2026-06-06T13:22:00.051456,15.42309856,.00056337,97.8660,163.1764,37.8178,322.3462,0,U,46505,999,31404,.54337003E-3,.2336E-3,0
NETSAT-1,2020-068W,2026-06-06T13:43:08.301504,15.34388994,.00061912,97.8751,157.6478,61.7667,298.4199,0,U,46506,999,31367,.51189457E-3,.16988E-3,0
NETSAT-2,2020-068X,2026-06-06T13:09:51.948288,15.45537706,.00048546,97.8623,164.7938,55.5994,304.5712,0,U,46507,999,31409,.59055274E-3,.28336E-3,0
GREENCUBE (IO-117),2022-080E,2026-06-01T11:09:37.753056,6.42583280,.00088692,70.1435,303.7143,293.3663,66.6064,0,U,53109,999,9105,0,-.3E-7,0
SITRO-AIS 5 (KATYS),2023-091L,2026-06-06T22:16:50.997792,15.29218397,.00126128,97.5060,221.7320,135.2715,224.9544,0,U,57176,999,16277,.52344783E-3,.14811E-3,0
SITRO-AIS 6 (CHIRKIN),2023-091AC,2026-06-06T22:47:05.569728,15.25738459,.00128954,97.5067,220.9262,138.1186,222.1041,0,U,57192,999,16272,.44657625E-3,.11352E-3,0
SITRO-AIS 8 (ANOKHIN),2023-091AD,2026-06-06T23:06:58.789152,15.31857374,.00118114,97.5056,223.3145,131.2338,228.9923,0,U,57193,999,16288,.51140059E-3,.15699E-3,0
SITRO-AIS 7 (FARTUSHNIY),2023-091AE,2026-06-06T22:48:37.889856,15.25431261,.00127228,97.5065,220.7576,138.9363,221.2835,0,U,57194,999,16271,.43054183E-3,.10839E-3,0
SITRO-AIS 10 (BURDAEV),2023-091AK,2026-06-06T21:46:29.506080,15.38219285,.00079612,97.5080,228.2071,110.2363,249.9739,0,U,57199,999,16318,.60872449E-3,.22896E-3,0
SITRO-AIS 9 (SHCHUKIN),2023-091AM,2026-06-06T22:19:51.938400,15.37743206,.00081931,97.5077,227.9688,110.6459,249.5665,0,U,57201,999,16317,.58575163E-3,.21689E-3,0
SITRO-AIS 12 (SMIRENNIY),2023-091AQ,2026-06-06T22:09:08.777664,15.38033081,.00078497,97.5091,228.4219,105.4252,254.7860,0,U,57204,999,16319,.5875425E-3,.2196E-3,0
SITRO-AIS 11 (SHEFFER),2023-091AU,2026-06-06T20:58:50.943936,15.38446110,.00077291,97.5088,228.6119,105.6754,254.5344,0,U,57208,999,16320,.59694564E-3,.22615E-3,0
SITRO-AIS 25,2024-039R,2026-06-06T22:10:51.663648,14.93456617,.0144816,95.3907,228.0403,4.8038,355.4537,0,U,59066,999,12319,.30604919E-3,.3921E-4,0
SITRO-AIS 26,2024-039S,2026-06-06T22:10:49.622880,14.93253606,.0145172,95.3907,227.9400,5.3755,354.8987,0,U,59067,999,12318,.30825077E-3,.3932E-4,0
SITRO-AIS 27,2024-039T,2026-06-06T23:08:34.795968,14.93673588,.01442403,95.3912,228.2346,3.9144,356.3173,0,U,59068,999,12321,.25903548E-3,.3328E-4,0
SITRO-AIS 28,2024-039U,2026-06-06T22:36:26.112096,14.93707404,.01440688,95.3913,228.2659,3.8586,356.3714,0,U,59071,999,12321,.32144104E-3,.414E-4,0
GRBBETA,2024-128C,2026-06-06T14:25:16.373280,15.06565866,.00420344,61.9899,253.4064,132.5127,227.9529,0,U,60237,999,10467,.36512467E-3,.5323E-4,0
OOV-CUBE (TUBSAT-30),2024-128F,2026-06-06T20:59:48.359328,15.02728483,.00459198,61.9952,261.5303,131.4461,229.0588,0,U,60240,999,10456,.22098619E-3,.2819E-4,0
ROBUSTA-3A (MEDITERRANEE),2024-128J,2026-06-06T14:48:32.848704,15.11543644,.00428162,61.9860,245.6203,125.8059,234.7027,0,U,60243,999,10482,.56280144E-3,.959E-4,0
LASARSAT,2024-247Q,2026-06-03T22:10:16.072896,15.45494859,.00080478,44.9754,336.7002,258.6055,101.3931,0,U,62391,999,8126,.75515127E-3,.36882E-3,0
CROCUBE,2024-247T,2026-06-06T20:13:00.782688,15.47515230,.00081442,44.9730,317.8161,277.6429,82.3536,0,U,62394,999,8174,.84876346E-3,.44564E-3,0
FORESAIL-1 PRIME,2025-276DS,2026-06-06T15:38:40.926912,15.18605818,.0003661,97.4198,231.1163,125.3136,234.8442,0,U,66778,999,2880,.26555905E-3,.5428E-4,0
KNACKSAT-2,1998-067XZ,2026-06-06T06:20:58.495488,15.58973490,.00105336,51.6302,349.3788,167.5745,192.5509,0,U,67683,999,1857,.81732863E-3,.64955E-3,0
